ACS3                    
1 59588U 24077B   24263.38853341  .00021330  00000+0  24464-1 0  9996
2 59588  97.4245 309.6972 0044596 213.2350 146.6000 13.69073870 20281
